{
  "type": "FeatureCollection",
  "crs": { "type": "name", "properties": { "name": "EPSG:3857" } },
  "features": [
    {
      "type": "Feature",
      "id": 1,
      "geometry": {
        "type": "Polygon",
        "coordinates": [
          [
            [-13406183.0613, 4489916.9804999977],
            [-13406182.3868, 4489890.6741999984],
            [-13406126.4016, 4489892.3605000004],
            [-13406126.907400001, 4489942.1063999981],
            [-13406151.021600001, 4489942.2749999985],
            [-13406150.8529, 4489918.1608999968],
            [-13406183.0613, 4489916.9804999977]
          ]
        ]
      },
      "properties": {
        "OBJECTID": 1,
        "Shape_Length": 212.53350976934613,
        "Shape_Area": 2059.2593317847741
      }
    }
  ]
}
